StreetName,PreK-2School,City,Zip,Notes,MinHouse,MaxHouse,List
Abbey Rd,Doherty,West Bloomfield,48322,,,,
Aeroview,Gretchko,West Bloomfield,48324,,,,
Akron,Gretchko,West Bloomfield,48324,,,,
Alcott,Gretchko,West Bloomfield,48324,,,,
Alden,Gretchko,West Bloomfield,48324,,6341,6987,
Alden Ct,Gretchko,West Bloomfield,48324,,,,
Alder Dr,Gretchko,West Bloomfield,48324,,,,
Alderley Way,Doherty,West Bloomfield,48322,,,,
Aldwin,Gretchko,West Bloomfield,48324,,,,
Algonquin,Gretchko,West Bloomfield,48324,,,,
Allendale,Gretchko,West Bloomfield,48324,,,,
Andiron Ct,Doherty,West Bloomfield,48322,,,,
Andre,Roosevelt,Keego Harbor,48320,,,,
Andrea Ln,Doherty,West Bloomfield,48322,,,,
Applegrove Dr,Gretchko,West Bloomfield,48324,,,,
Apple Ridge Trail,Doherty,West Bloomfield,48322,,,,
Applewood,Doherty,West Bloomfield,48322,,,,
Arbor Ct,Gretchko,West Bloomfield,48324,,,,
Arcadia,Gretchko,Orchard Lake,48324,,,,
Arline,Doherty,Orchard Lake,48323,,,,
Arneth,Gretchko,West Bloomfield,48324,,,,
Arrowvale,Roosevelt,Orchard Lake,48324,,,,
Ashview,Gretchko,West Bloomfield,48324,,,,
Aspen Ridge Blvd,Doherty,West Bloomfield,48322,,,,
Aspenwood,Doherty,West Bloomfield,48322,,,,
Atlas,Roosevelt,Keego Harbor,48320,,,,
Auburndale,Gretchko,West Bloomfield,48324,,,,
Aurelia,Gretchko,West Bloomfield,48324,,,,
Autumn Ridge Dr,Doherty,West Bloomfield,48323,,,,
Autumn Ridge Ct,Doherty,West Bloomfield,48323,,,,
Bantry,Doherty,West Bloomfield,48322,,,,
Barnstable Ct,Doherty,West Bloomfield,48322,,,,
Bauervic Blvd,Doherty,West Bloomfield,48322,,,,
Bay Dr,Gretchko,West Bloomfield,48324,,,,
Bay Shore Dr,Gretchko,Orchard Lake,48324,,,,
Bayswater,Doherty,West Bloomfield,48322,,,,
Beach,Gretchko,Orchard Lake,48324,,,,
Beachland Blvd,Roosevelt,Keego Harbor,48320,,,,1447;1449;1451;1453;1457;1480;1481;1497;1528
Beachwood Dr,Gretchko,West Bloomfield,48324,,,,
Beachwood Ct,Gretchko,West Bloomfield,48324,,,,
Beauchamp Place,Doherty,West Bloomfield,48322,,,,
Beechcroft,Roosevelt,Keego Harbor,48320,,,,
Beechmont,Roosevelt,Keego Harbor,48320,,,,
Beechtree Trail,Doherty,West Bloomfield,48322,,,,
Beland,Roosevelt,Keego Harbor,48320,,,,
Bellows Ct,Doherty,West Bloomfield,48322,,,,
Belmont Cir,Doherty,West Bloomfield,48322,,,,
Bentley,Doherty,West Bloomfield,48322,,,,
Beverly,Roosevelt,Sylvan Lake,48320,,,,
Beverly Crest,Doherty,West Bloomfield,48322,,,,
Birchena Crescent,Gretchko,West Bloomfield,48324,,,,
Birch Ln,Gretchko,West Bloomfield,48324,,,,
Birchway,Gretchko,Orchard Lake,48324,,,,
Birdview,Gretchko,Orchard Lake,48324,,,,
Bloomfield Oaks Dr,Gretchko,West Bloomfield,48324,,,,
Blossom Dr,Gretchko,West Bloomfield,48324,,,,
Bluebird,Gretchko,Orchard Lake,48324,,,,
Blue Spruce Ct,Gretchko,West Bloomfield,48324,,,,
Bonnie Ct,Doherty,West Bloomfield,48322,,,,
Boxer,Doherty,West Bloomfield,48322,,,,
Boxwood Ct,Doherty,West Bloomfield,48322,,,,
Bradmore,Gretchko,West Bloomfield,48324,,,,
Bramblewood,Doherty,West Bloomfield,48322,,,,
Bravo Ct,Gretchko,Orchard Lake,48324,,,,
Breckenridge,Doherty,West Bloomfield,48322,,,,
Brett Ct,Doherty,West Bloomfield,48322,,,,
Brewster,Doherty,West Bloomfield,48322,,,,
Bridge Way,Doherty,West Bloomfield,48322,,,,
Bridge Way W,Doherty,West Bloomfield,48322,,,,
Bristol Ln,Doherty,West Bloomfield,48322,,,,
Bromley Ct,Doherty,West Bloomfield,48322,,,,
Brock,Roosevelt,Keego Harbor,48320,,,,
Brompton Dr,Doherty,West Bloomfield,48322,,,,
Brompton Ct,Doherty,West Bloomfield,48322,,,,
Brook Ln,Doherty,West Bloomfield,48322,,,,
Brook Hollow Ct,Doherty,West Bloomfield,48322,,,,
Browning Dr,Doherty,West Bloomfield,48323,,,,
Brynmawr,Doherty,West Bloomfield,48322,,,,
Brynmawr Ct,Doherty,West Bloomfield,48322,,,,
Buckland,Gretchko,West Bloomfield,48324,,,,
Bud,Doherty,West Bloomfield,48323,,,,
Bulwer,Roosevelt,Keego Harbor,48320,,,,
Bungalow,Gretchko,West Bloomfield,48324,,,,
Burtonwood,Doherty,West Bloomfield,48322,,,,
Buxton,Doherty,West Bloomfield,48322,,,,
Buxton Ct,Doherty,West Bloomfield,48322,,,,
Camron Ct,Gretchko,West Bloomfield,48324,,,,
Carmen Ct E,Gretchko,Orchard Lake,48324,,,,
Carmen Ct W,Gretchko,Orchard Lake,48324,,,,
Carol Ct,Doherty,West Bloomfield,48322,,,,
"Carol Run N,S,W,",Doherty,West Bloomfield,48322,,,,
Carpathian,Gretchko,West Bloomfield,48324,,,,
Carpathian Ct,Gretchko,West Bloomfield,48324,,,,
Carrick,Gretchko,West Bloomfield,48324,,,,
Carroll Ln,Doherty,West Bloomfield,48322,,,,
Cass Lake Ave,Roosevelt,Keego Harbor,48320,,,,
Cass Lake Front,Roosevelt,Keego Harbor,48320,,,,
Cass Lake Rd,Roosevelt,Keego Harbor,48320,,1535,3123,
Cedar Grove Ct,Doherty,West Bloomfield,48322,,,,
Cedarhurst,Doherty,West Bloomfield,48322,,,,
Centerbrook,Doherty,West Bloomfield,48322,,,,
Charles Dr,Doherty,West Bloomfield,48322,,,,
Charles Ct,Doherty,West Bloomfield,48322,,,,
Charrington,Gretchko,West Bloomfield,48324,,,,
Charrington Ct,Gretchko,West Bloomfield,48324,,,,
Cherry Blossom Cir,Gretchko,West Bloomfield,48324,,,,
Cherry Crest,Doherty,West Bloomfield,48322,,,,
Cherry Hill Dr,Doherty,Orchard Lake,48323,,,,
Cherry Ln,Gretchko,West Bloomfield,48324,,,,
Cherrywood,Doherty,West Bloomfield,48322,,,,
Chestershire,Doherty,West Bloomfield,48322,,,,
Chestershire Ct,Doherty,West Bloomfield,48322,,,,
Chestnut,Gretchko,West Bloomfield,48324,,,,
Chestnut Ct,Gretchko,West Bloomfield,48324,,,,
Chimney Hill Blvd,Doherty,West Bloomfield,48322,,,,
Chimney Hill Dr,Doherty,West Bloomfield,48322,,,,
Chimney Hill Ln,Doherty,West Bloomfield,48322,,,,
Chimney Sweep Ct,Doherty,West Bloomfield,48322,,,,
Christopher Ln,Roosevelt,Keego Harbor,48320,There is a Christopher Ct in the Waterford District.,,,
Civic Center Dr,Doherty,West Bloomfield,48323,,,,
Claire,Doherty,West Bloomfield,48323,,4200,4284,
Claridge,Doherty,West Bloomfield,48322,,,,
Cliffside Dr,Doherty,West Bloomfield,48323,,,,
Clinton,Gretchko,West Bloomfield,48324,,,,
Clubview,Gretchko,West Bloomfield,48324,,,,
Coblens,Gretchko,West Bloomfield,48324,,,,
Cochise,Doherty,West Bloomfield,48322,,,,
Colorado Ln,Doherty,West Bloomfield,48322,,,,
Commerce Rd,Roosevelt,Orchard Lake,48324,,3398,3950,
Commerce Rd,Gretchko,Orchard Lake,48324,,4050,5517,
Commerce Rd,Gretchko,West Bloomfield,48324,,5518,7040,
Connector Rd,Doherty,West Bloomfield,48322,,,,
Coomer Rd,Gretchko,West Bloomfield,48324,,5379,5775,
Cordell,Roosevelt,Keego Harbor,48320,,,,
Corral Ct,Gretchko,West Bloomfield,48324,,,,
Cottonwood Knoll,Doherty,West Bloomfield,48322,,6600,6949,
Cottonwood Knoll Ct,Doherty,West Bloomfield,48322,,6600,6949,
Countryside Dr,Doherty,West Bloomfield,48323,,,,
Crabapple Ct,Gretchko,West Bloomfield,48324,,,,
Crackling Creek Cr.,Doherty,West Bloomfield,48322,,,,
Craig,Doherty,West Bloomfield,48322,,,,
Cranbrook Trail,Gretchko,Orchard Lake,48324,,,,
Creek View,Doherty,West Bloomfield,48322,,,,
Creeks Bend Dr,Doherty,West Bloomfield,48322,,,,
Creeks Bend Ct,Doherty,West Bloomfield,48322,,,,
Creeks Crossing,Doherty,West Bloomfield,48322,,,,
Crestwood,Doherty,West Bloomfield,48322,,,,
Cromwell,Doherty,West Bloomfield,48322,,,,
Cromwell Ct,Doherty,West Bloomfield,48322,,,,
Culpepper,Doherty,West Bloomfield,48322,,,,
Culpepper Ct,Doherty,West Bloomfield,48322,,,,
Daly Rd,Doherty,West Bloomfield,48322,,,,
Danbury Dr,Doherty,West Bloomfield,48322,,,,
Danbury Ct,Doherty,West Bloomfield,48322,,,,
Danbury Cir,Doherty,West Bloomfield,48322,,,,
Dandison,Gretchko,West Bloomfield,48324,,6515,7012,
Darb Lake,Gretchko,West Bloomfield,48324,,,,
Darbwood,Gretchko,West Bloomfield,48324,,,,
Daron,Gretchko,West Bloomfield,48324,,,,
Daventry Woods Dr,Doherty,West Bloomfield,48322,,6903,7125,
Dawncrest,Gretchko,West Bloomfield,48324,,,,
Deerfield Village Dr,Doherty,West Bloomfield,48322,,,,
Dirkshire Dr,Doherty,West Bloomfield,48322,,,,
Doherty St,Doherty,West Bloomfield,48323,,,,
W Doherty Dr,Doherty,West Bloomfield,48323,,,,
Doleman,Gretchko,West Bloomfield,48324,,,,
Dover Rd,Doherty,West Bloomfield,48322,,,,
Dover Ct,Doherty,West Bloomfield,48322,,,,
Dow Ridge,Gretchko,Orchard Lake,48324,,,,
Drake Rd,Doherty,West Bloomfield,48322,currently no houses,,,
Drakshire Ln,Doherty,West Bloomfield,48322,,,,
Dubrova Dr,Gretchko,West Bloomfield,48324,,,,
Duffield,Gretchko,West Bloomfield,48324,,,,
Dunmore,Doherty,West Bloomfield,48322,,,,
Dunmore Ct,Doherty,West Bloomfield,48322,,,,
Edgecrest,Gretchko,West Bloomfield,48324,,,,
Edinborough,Doherty,West Bloomfield,48322,,6650,7026,
Edkins,Doherty,West Bloomfield,48323,,,,
Edwood,Gretchko,West Bloomfield,48324,,,,
Elan Ct,Roosevelt,Keego Harbor,48320,,,,
Elizabeth Ln,Gretchko,West Bloomfield,48324,,,,
Elm,Roosevelt,Keego Harbor,48320,No houses,,,
Elm Crest,Doherty,West Bloomfield,48322,,,,
Elmgate,Gretchko,Orchard Lake,48324,,,,
Elmgate Bay Dr,Gretchko,Orchard Lake,48324,,,,
Elmview,Gretchko,West Bloomfield,48324,,,,
Elsie Dr,Gretchko,West Bloomfield,48324,,,,
Embers Ct,Doherty,West Bloomfield,48322,,,,
Erie Dr,Roosevelt,Orchard Lake,48324,,,,
Evergreen,Doherty,Orchard Lake,48324,,,,
Faircourt,Doherty,West Bloomfield,48322,,,,
Fairlawn,Gretchko,Orchard Lake,48324,,,,
Fairview Ct,Doherty,West Bloomfield,48322,,,,
Fairway Ln,Doherty,West Bloomfield,48323,,,,
Fairway Ct,Doherty,West Bloomfield,48323,,,,
Falcon Ct,Doherty,West Bloomfield,48323,,,,
Falcon Oaks,Doherty,West Bloomfield,48322,,,,
Farmington Rd,Doherty,West Bloomfield,48322,,5535,6950,
Far Ravine,Doherty,West Bloomfield,48323,,,,
Far Ravine Ct,Doherty,West Bloomfield,48323,,,,
Fieldstone Ct,Doherty,West Bloomfield,48322,,,,
Fieldview,Gretchko,West Bloomfield,48324,,,,
Finnegan,Doherty,West Bloomfield,48322,,,,
Fireside Ct,Doherty,West Bloomfield,48322,,,,
Firestone Ct,Doherty,West Bloomfield,48322,,,,
Fordham,Roosevelt,Keego Harbor,48320,,,,
Forestdale,Doherty,West Bloomfield,48322,,,,
Forestdale Ct,Doherty,West Bloomfield,48322,,,,
Forest Glen,Gretchko,West Bloomfield,48324,,,,
Forestview Dr,Doherty,West Bloomfield,48322,,,,
Forestview Ct,Doherty,West Bloomfield,48322,,,,
Fourteen Mile Rd,Doherty,West Bloomfield,48322,No houses; all businesses,,,
Fountain Park,Roosevelt,Keego Harbor,48320,,,,
Fox Hunt Ln,Doherty,West Bloomfield,48322,,,,
Foxon Dr,Doherty,West Bloomfield,48323,,,,
Foxpointe Dr,Doherty,West Bloomfield,48323,,,,
Fox Ridge,Doherty,West Bloomfield,48322,,,,
Fox Ridge Cir,Doherty,West Bloomfield,48322,,,,
Fox Woods,Gretchko,West Bloomfield,48324,,,,
Fox Woods Ct,Gretchko,West Bloomfield,48324,,,,
Garden Terrace,Gretchko,Orchard Lake,48324,,,,
Garland St,Roosevelt,Sylvan Lake,48320,,,,2620;2630;2640;2650;2670;2680
Gatehouse Blvd,Doherty,West Bloomfield,48322,,,,
Gerundecut,Gretchko,West Bloomfield,48324,,,,
Gherity,Doherty,West Bloomfield,48322,,,,
Gilbert Ridge,Doherty,West Bloomfield,48322,,,,
Glenbroke,Roosevelt,Keego Harbor,48320,,,,
Grand Ct,Gretchko,West Bloomfield,48324,,,,
Grassland,Gretchko,West Bloomfield,48324,,,,
Great Oaks Ct,Doherty,West Bloomfield,48323,,,,
Green Bay,Gretchko,West Bloomfield,48324,,,,
Greenbriar,Doherty,West Bloomfield,48323,,,,
Greenbriar Ct,Doherty,West Bloomfield,48323,,,,
Green Hill Ct,Gretchko,West Bloomfield,48324,,,,
Green Lake Rd,Gretchko,West Bloomfield,48324,,3340,4131,
Green Rd,Doherty,West Bloomfield,48323,,,,
Greenstown,Doherty,West Bloomfield,48323,,,,
Greer Rd,Gretchko,West Bloomfield,48324,,4730,4745,
Greer Rd,Gretchko,West Bloomfield,48324,,4754,5001,
Greer Rd,Gretchko,West Bloomfield,48324,,5145,5670,
Greer Rd,Gretchko,West Bloomfield,48324,,,,5767;5823;5885;5939
Greer Blvd,Roosevelt,Sylvan Lake,48320,,,,
Greydale,Gretchko,West Bloomfield,48324,,,,
Grove,Roosevelt,Keego Harbor,48320,,,,
Hammersmith,Doherty,West Bloomfield,48322,,,,
Harbor Village Ave,Roosevelt,Keego Harbor,48320,,,,
Harbor Way,Roosevelt,Keego Harbor,48320,,,,
Hardwoods,Doherty,West Bloomfield,48323,,,,
Harness,Gretchko,West Bloomfield,48324,,,,
Harris Ln,Doherty,West Bloomfield,48323,,,,
Hartslock Woods,Doherty,West Bloomfield,48322,,,,
Hauser Way,Doherty,West Bloomfield,48323,,,,
Hawkwoods Dr,Doherty,West Bloomfield,48322,,,,
Hawkwoods Ct,Doherty,West Bloomfield,48322,,,,
Haymeadow,Doherty,West Bloomfield,48322,,,,
Hearthside Ct,Doherty,West Bloomfield,48322,,,,
Hearthstone Ct,Doherty,West Bloomfield,48322,,,,
Heather Heath,Doherty,West Bloomfield,48322,,6511,7054,
Hensman,Roosevelt,Keego Harbor,48320,,,,
Hester,Roosevelt,Keego Harbor,48320,,,,
Hickock,Gretchko,West Bloomfield,48324,,,,
Hickory Ct,Doherty,Orchard Lake,48323,,,,
Hickory Pointe Dr,Gretchko,Orchard Lake,48324,,4925,5056,
Hidden Creek,Doherty,West Bloomfield,48322,,,,
Hidden Creek Ct,Doherty,West Bloomfield,48322,,7213,7221,
Hidden Lake Dr,Gretchko,West Bloomfield,48324,,,,
Hidden Lake Ct,Gretchko,West Bloomfield,48324,,,,
Hidden Ln,Doherty,West Bloomfield,48323,,,,
Hidden Oaks Ln,Gretchko,West Bloomfield,48324,,,,
Hidden Valley Dr,Gretchko,Orchard Lake,48324,4494 is Walled Lake Schools.,,,4471;4495
High Ct Way,Doherty,West Bloomfield,48323,,,,
Highcliff Ct,Doherty,West Bloomfield,48322,,,,
Highview,Gretchko,West Bloomfield,48324,,,,
Hiller Rd,Gretchko,West Bloomfield,48324,,1525,2478,
Hiller Rd,Gretchko,West Bloomfield,48324,,,,2537;2575;2651;2882;2930;2962;2990;3300
Hobnail Cir,Doherty,West Bloomfield,48322,,,,
Hollyhock,Doherty,West Bloomfield,48322,,,,
Hunter Heights,Gretchko,West Bloomfield,48324,,,,
Huntingdon,Doherty,West Bloomfield,48322,,,,
Hutchins Hill,Doherty,West Bloomfield,48323,,3746,3779,
Ideal,Gretchko,Orchard Lake,48324,,,,
Indiandale,Roosevelt,Orchard Lake,48324,,,,
Indian Trail,Roosevelt,Orchard Lake,48324,,,,
Island Ct,Roosevelt,Sylvan Lake,48320,,,,
Island View,Gretchko,West Bloomfield,48324,,,,
Jakewood Dr,Gretchko,West Bloomfield,48324,,,,
John Warren Dr,Gretchko,West Bloomfield,48324,,,,
Jules,Gretchko,West Bloomfield,48324,,,,
Justin Ln,Doherty,West Bloomfield,48322,,,,
Karachi St,Doherty,West Bloomfield,48322,,,,
Katrin,Doherty,West Bloomfield,48322,,,,
Keelson,Gretchko,West Bloomfield,48324,,,,
Kendall,Roosevelt,Keego Harbor,48320,,,,
Kenrick,Roosevelt,Keego Harbor,48320,,,,
Kessler Ave,Roosevelt,Keego Harbor,48320,,1517,1595,
Kevin Ct,Doherty,West Bloomfield,48322,,,,
Keylon,Gretchko,West Bloomfield,48324,,,,
Kiev,Gretchko,West Bloomfield,48324,,,,
Kiev Ct,Gretchko,West Bloomfield,48324,,,,
Kindling Ct,Doherty,West Bloomfield,48322,,,,
Kingsfield,Doherty,West Bloomfield,48322,,,,
Kingsfield Ct,Doherty,West Bloomfield,48322,,,,
Kitson,Gretchko,West Bloomfield,48324,,,,
Kliest Ct,Roosevelt,Keego Harbor,48320,,,,
Knightsbridge Ln,Doherty,West Bloomfield,48323,,,,
Knollview,Gretchko,West Bloomfield,48324,,,,
Knowlson,Roosevelt,Keego Harbor,48320,,,,
Kolomyia,Gretchko,West Bloomfield,48324,,,,
Ladbrook,Roosevelt,West Bloomfield,48324,,,,
Lake Bluff,Doherty,West Bloomfield,48323,,,,
Lake Bluff Ct,Doherty,West Bloomfield,48323,,,,
Lakemoor Ct,Gretchko,West Bloomfield,48324,,,,
Lakeside,Doherty,West Bloomfield,48323,,,,
Lakeview Ave,Gretchko,West Bloomfield,48324,,,,
Lakeview St,Gretchko,Orchard Lake,48324,,,,
Langlewood,Doherty,West Bloomfield,48322,,,,
Langlewood Ct,Doherty,West Bloomfield,48322,,,,
Langtoft,Gretchko,West Bloomfield,48324,,6643,6741,
LaPlaya Ln,Gretchko,Orchard Lake,48324,,,,
Lari Ct,Gretchko,West Bloomfield,48324,,,,
Latimer,Gretchko,West Bloomfield,48324,,,,
Laurel Club Dr,Doherty,West Bloomfield,48323,,,,
Laurel Club Cir,Doherty,West Bloomfield,48323,,,,
Ledgeway,Doherty,West Bloomfield,48322,,,,
Lee Crest,Doherty,West Bloomfield,48322,,,,
Leesburg,Doherty,West Bloomfield,48323,,,,
Leigh Hollow,Doherty,West Bloomfield,48322,,6505,6511,
Lenomar Ct,Doherty,West Bloomfield,48322,,,,
Leonard Ct,Doherty,West Bloomfield,48322,,,,
Leroy Ln,Gretchko,West Bloomfield,48324,,,,
Leroy Ct,Gretchko,West Bloomfield,48324,,,,
Leslee Crest,Doherty,West Bloomfield,48322,,,,
Lindsay Ct,Gretchko,West Bloomfield,48324,,,,
Linwood,Gretchko,West Bloomfield,48324,,,,
Littletell,Roosevelt,West Bloomfield,48324,,,,2733
Lloyd,Gretchko,West Bloomfield,48324,,,,
Lochaven,Gretchko,West Bloomfield,48324,,2345,2499,
Lockhart,Doherty,West Bloomfield,48323,,,,
Locklin Ln,Gretchko,West Bloomfield,48324,,2128,2478,
Locklin Ct,Gretchko,West Bloomfield,48324,,2128,2478,
Locustview,Gretchko,West Bloomfield,48324,,,,
Lone Pine Rd,Doherty,West Bloomfield,48323,,,,
Long Meadow Ct,Gretchko,West Bloomfield,48324,,,,
MacQueen,Doherty,West Bloomfield,48323,,,,
Mada Ct,Doherty,West Bloomfield,48322,,,,
Maddy Ln,Roosevelt,Keego Harbor,48320,,,,
Mandale,Gretchko,West Bloomfield,48324,,,,
Mandale Ct,Gretchko,West Bloomfield,48324,,,,
Mapesbury,Gretchko,West Bloomfield,48324,,,,
Maple Creek Blvd,Doherty,West Bloomfield,48322,,,,
Maple Creek Ct,Doherty,West Bloomfield,48322,,,,
W Maple Rd,Doherty,West Bloomfield,48322,,5405,5680,
W Maple Rd,Doherty,West Bloomfield,48322,,5705,6095,
W Maple Rd,Doherty,West Bloomfield,48322,,6111,6311,
W Maple Rd,Doherty,West Bloomfield,48322,,,,6420
Mapleview,Gretchko,West Bloomfield,48324,,,,
Marlwood Dr,Doherty,West Bloomfield,48323,,,,
Marlwood Ct,Doherty,West Bloomfield,48323,,,,
Mary's Ln,Doherty,West Bloomfield,48322,,,,
Meadowbrook,Doherty,West Bloomfield,48322,,,,
Meadowfield,Gretchko,West Bloomfield,48324,,,,
Meadow Ln,Doherty,Orchard Lake,48323,,,,
Medford Dr,Gretchko,West Bloomfield,48324,,,,
Mellow Wood,Doherty,West Bloomfield,48322,,,,
Merrybrook,Doherty,West Bloomfield,48322,,,,6922;6923;6946;6947
Midchester Dr,Gretchko,West Bloomfield,48324,,,,
Midchester Ct,Gretchko,West Bloomfield,48324,,,,
Middlebelt,Doherty,West Bloomfield,48322,,5650,5880,
Middlebelt,Doherty,West Bloomfield,48322,,,,6240
Mill Pond Ct,Doherty,West Bloomfield,48322,,,,
Millwall,Roosevelt,Keego Harbor,48320,,,,
Mirror Lake Dr,Doherty,West Bloomfield,48323,Mirror Lake Ct is Walled Lake Schools,,,
Mission Dr,Gretchko,West Bloomfield,48324,,,,
Mission Ct,Gretchko,West Bloomfield,48324,,,,
Mitra Ct,Doherty,West Bloomfield,48322,,,,
Moorgate,Gretchko,West Bloomfield,48324,,,,
Mornhill,Gretchko,West Bloomfield,48324,,,,
Morris Lake Cir,Doherty,West Bloomfield,48323,,4719,4759,
Moss,Roosevelt,Keego Harbor,48320,,,,
Mountain Ash Dr,Gretchko,West Bloomfield,48324,,,,
Nagle Ct,Roosevelt,Keego Harbor,48320,,,,
Nardo Ct,Gretchko,West Bloomfield,48324,,,,
E Nashway,Doherty,West Bloomfield,48322,,,,
W Nashway,Doherty,West Bloomfield,48322,,,,
Nicholas,Doherty,West Bloomfield,48322,,,,
Nicole Ct,Gretchko,West Bloomfield,48324,,,,
Norcott,Roosevelt,Keego Harbor,48320,,,,
E Norma Lee St,Doherty,West Bloomfield,48322,,,,
W Norma Lee St,Doherty,West Bloomfield,48322,,,,
Normanwood,Doherty,West Bloomfield,48323,,4224,4257,
North Bay,Gretchko,Orchard Lake,48324,,,,
North Creek Ct,Doherty,West Bloomfield,48322,,,,
Northfield,Doherty,West Bloomfield,48322,,,,
North Red Farn Way,Doherty,West Bloomfield,48323,,,,
North Shore,Gretchko,West Bloomfield,48324,,,,
North Shore Ct,Gretchko,West Bloomfield,48324,,,,
Northwood,Gretchko,West Bloomfield,48324,,,,
Oak Bank Ct,Doherty,Orchard Lake,48323,,,,
Oak Grove,Doherty,Orchard Lake,48323,,,,
Oak Hollow Ln,Doherty,West Bloomfield,48323,,,,
Oak Park Dr,Gretchko,West Bloomfield,48324,,,,
Oak Trail,Doherty,West Bloomfield,48322,,,,
Odessa,Gretchko,West Bloomfield,48324,,,,
Odessa Ct,Gretchko,West Bloomfield,48324,,,,
Old Carriage,Doherty,West Bloomfield,48322,,,,
Old Dominion,Doherty,West Bloomfield,48323,,,,
Old Dominion Ct,Doherty,West Bloomfield,48323,,,,
Old Orchard Trail,Gretchko,Orchard Lake,48324,,,,
Old Pond Way,Doherty,West Bloomfield,48323,,,,
Old Sanbargo Way,Doherty,West Bloomfield,48323,,,,
Oldtown,Gretchko,West Bloomfield,48324,,,,
Old Trail Dr,Doherty,West Bloomfield,48322,,,,
Orchard Crest,Doherty,West Bloomfield,48322,,,,
Orchard Crest Ct,Doherty,West Bloomfield,48322,,,,
Orchard Lake Rd,Roosevelt,Keego Harbor,48320,PLEASE CALL THE DISTRICT TO CONFIRM,2167,3499,
Orchard Lake Rd,Roosevelt,Keego Harbor,48320,PLEASE CALL THE DISTRICT TO CONFIRM,,,1987
Orchard Lake Rd,Roosevelt,Orchard Lake,48324,PLEASE CALL THE DISTRICT TO CONFIRM,2167,4230,
Orchard Lake Rd,Doherty,West Bloomfield,48323,PLEASE CALL THE DISTRICT TO CONFIRM,4460,5480,
Orchard Lake Rd,Doherty,West Bloomfield,48322,PLEASE CALL THE DISTRICT TO CONFIRM,5570,6495,
Orchard Lake Rd,Doherty,West Bloomfield,48322,PLEASE CALL THE DISTRICT TO CONFIRM,6580,7100,
Orchard Trail Ct,Gretchko,Orchard Lake,48324,,,,
Orchard View,Gretchko,West Bloomfield,48324,,,,
Orchard Woods Dr,Gretchko,West Bloomfield,48324,,,,
Otter,Roosevelt,Keego Harbor,48320,Any Otter address in the city of Waterford is NOT WBSD.,,,
Paddock,Gretchko,West Bloomfield,48324,,,,
Paisley Ct,Doherty,West Bloomfield,48322,,,,
Panorama Cir,Doherty,West Bloomfield,48323,,,,
Park,Gretchko,Orchard Lake,48324,,,,
Park Cir,Roosevelt,Keego Harbor,48320,,,,
Parkland,Doherty,West Bloomfield,48322,,,,
Parkview,Gretchko,West Bloomfield,48324,,,,
Par Valley Ct,Doherty,West Bloomfield,48323,,,,
Patrick,Doherty,West Bloomfield,48322,,,,
Paulos Ln,Doherty,West Bloomfield,48322,,,,
Peachtree Ct,Gretchko,West Bloomfield,48324,,,,
Pebble Creek Woods Dr,Doherty,West Bloomfield,48322,,,,
Pebble Ln,Doherty,West Bloomfield,48322,,,,
Pebble Ct,Doherty,West Bloomfield,48322,,,,
Pebble Park Dr,Doherty,West Bloomfield,48322,,,,
Pebble Park Cir,Doherty,West Bloomfield,48322,,,,
Pebble Pointe,Doherty,West Bloomfield,48322,,,,
Peggy St,Doherty,West Bloomfield,48322,,,,
Pelletier,Gretchko,Orchard Lake,48324,,,,
Pembrooke Crossing,Doherty,West Bloomfield,48322,,,,
Pepper Hill,Doherty,West Bloomfield,48322,,,,
Perham,Doherty,West Bloomfield,48322,,,,
Perrytown Dr,Doherty,West Bloomfield,48322,,,,
Perrytown Ct,Doherty,West Bloomfield,48322,,,,
N Piccadilly,Doherty,West Bloomfield,48322,,,,
S Piccadilly,Doherty,West Bloomfield,48322,,,,
Pickwood,Doherty,West Bloomfield,48322,,,,
Pickwood Ct,Doherty,West Bloomfield,48322,,,,
Pine Ct,Roosevelt,West Bloomfield,48324,,,,
Pinecroft Dr,Doherty,West Bloomfield,48322,,,,
Pinecroft Ct,Doherty,West Bloomfield,48322,,,,
Pine Eagle,Doherty,West Bloomfield,48322,,,,
Pinehurst Dr,Doherty,West Bloomfield,48322,,,,
Pinehurst Ct,Doherty,West Bloomfield,48322,,,,
Pine Lake Ave,Roosevelt,Keego Harbor,48320,,,,
Pine Lake Knoll,Roosevelt,West Bloomfield,48324,,,,
Pine Lake Trail,Roosevelt,Keego Harbor,48320,,,,
Pine Ln,Doherty,Orchard Lake,48323,,,,
Pine Village Dr,Doherty,West Bloomfield,48323,,,,
Pinnock,Gretchko,West Bloomfield,48324,,,,
Pleasant,Roosevelt,Sylvan Lake,48320,No Houses,,,
Plum Crest,Doherty,West Bloomfield,48322,,,,
Plum Grove Ln,Gretchko,West Bloomfield,48324,,,,
Pocono,Doherty,West Bloomfield,48323,,,,
Pointe of the Woods Dr,Gretchko,West Bloomfield,48324,,,,
Pointview Dr,Gretchko,West Bloomfield,48324,,,,
Pond Bluff,Doherty,West Bloomfield,48323,,,,
Pond Bluff Ct,Doherty,West Bloomfield,48323,,,,
Pontiac Trail,Gretchko,Orchard Lake,48324,Gretchko: Houses on north side; Doherty: Houses on south side,4040,4470,
Pontiac Trail,Doherty,Orchard Lake,48323,Gretchko: Houses on north side; Doherty: Houses on south side,4085,4845,
Poppleton,Gretchko,West Bloomfield,48324,,,,
Poppleton Ct,Gretchko,West Bloomfield,48324,,,,
Portman,Roosevelt,Keego Harbor,48320,,,,
Possum Ln,Gretchko,Orchard Lake,48324,,,,
Post,Gretchko,West Bloomfield,48324,,,,
Post Oak,Doherty,West Bloomfield,48322,,,,
Potomac Cir,Doherty,West Bloomfield,48322,,,,
"Potomac Run E,W,N,S ",Doherty,West Bloomfield,48322,,,,
Potomac Way,Doherty,West Bloomfield,48322,,,,
Powder Horn,Doherty,West Bloomfield,48322,,,,
Prado Ct,Gretchko,Orchard Lake,48324,,,,
Pridham,Roosevelt,Keego Harbor,48320,,,,
Prospect,Gretchko,West Bloomfield,48324,,,,
Prynne,Roosevelt,Keego Harbor,48320,,,,
Radcliff,Doherty,West Bloomfield,48322,,,,
Radcliff Ct,Doherty,West Bloomfield,48322,,,,
Ramwyck Ct,Doherty,West Bloomfield,48322,,,,
Rea Ct,Doherty,West Bloomfield,48322,Private,,,
Recreation,Gretchko,West Bloomfield,48324,,,,
Recreation Ct,Gretchko,West Bloomfield,48324,,,,
Red Cedar Ln,Gretchko,West Bloomfield,48324,,,,
Red Coat Ln,Doherty,West Bloomfield,48322,,,,
Red Fox Ct,Gretchko,West Bloomfield,48324,,,,
Redwood Ct,Doherty,West Bloomfield,48323,,,,
Revere Ct,Gretchko,West Bloomfield,48324,,,,
Richard Run,Doherty,West Bloomfield,48322,,,,
Richard Run W,Doherty,West Bloomfield,48322,,,,
Rivona Dr,Roosevelt,Waterford,48328,All other Rivona addresses are Waterford Schools.,,,1460;1466;1481;1484;1488;1492;1493;1498;1499;1504;1516;1530;1550
Rock Run,Doherty,West Bloomfield,48322,,,,
Rose Blvd,Doherty,West Bloomfield,48322,,,,
Rosedale,Gretchko,West Bloomfield,48324,,,,
Royal Pointe Dr,Doherty,West Bloomfield,48322,,,,
Royal Wood Ct,Doherty,West Bloomfield,48322,,,,
Runnymead Ct,Doherty,West Bloomfield,48322,,,,
Rustic Ln,Roosevelt,Keego Harbor,48320,,,,
Rutledge Park,Doherty,West Bloomfield,48322,,,,
Rutledge Park Ct,Doherty,West Bloomfield,48322,,,,
Rycroft,Roosevelt,Keego Harbor,48320,,,,
Saddle Ln,Doherty,West Bloomfield,48322,,,,
Saddlewood,Gretchko,West Bloomfield,48324,,,,
Sancroft,Gretchko,West Bloomfield,48324,,,,
Savoie Trail,Doherty,West Bloomfield,48323,,,,
Savoie Ct,Doherty,West Bloomfield,48323,,,,
Scenicview LN,Doherty,West Bloomfield,48323,,,,
Schroder Blvd,Roosevelt,Keego Harbor,48320,,,,
Seabright,Roosevelt,Keego Harbor,48320,,,,
Seminary,Roosevelt,Orchard Lake,48324,,,,
Seville Cir,Gretchko,Orchard Lake,48324,,,,
Shadowood Dr,Doherty,West Bloomfield,48322,,,,
Shady Beach,Gretchko,Orchard Lake,48324,,,,
Shaun,Doherty,West Bloomfield,48322,,,,
Shillingham,Doherty,West Bloomfield,48322,,,,
Shilo Ct,Doherty,West Bloomfield,48322,,,,
Shore Dr,Gretchko,Orchard Lake,48324,,,,
Siloh Ct,Gretchko,West Bloomfield,48324,,,,
Silver Pond,Doherty,West Bloomfield,48322,,,,
Silverwood,Doherty,West Bloomfield,48322,,,,
Silverwood Ct,Doherty,West Bloomfield,48322,,,,
Simpson Lake Rd,Doherty,West Bloomfield,48323,,,,
Simpson Lake Ct,Doherty,West Bloomfield,48323,,,,
Simsbury Dr,Doherty,West Bloomfield,48322,,,,
Somerville,Doherty,West Bloomfield,48323,,,,
South Bay Dr,Gretchko,Orchard Lake,48323,,4381,4479,
South Knoll,Doherty,West Bloomfield,48323,,,,
South Knoll Ct,Doherty,West Bloomfield,48323,,,,
Spring Brook Ct,Gretchko,West Bloomfield,48324,,,,
Spring St,Doherty,West Bloomfield,48322,,,,
Springwater Ln,Doherty,West Bloomfield,48322,,,,
Springwater Ct,Doherty,West Bloomfield,48322,,,,
Stamford,Doherty,West Bloomfield,48323,,,,
Stapleton,Roosevelt,Keego Harbor,48320,,,,
Stennett,Roosevelt,Keego Harbor,48320,,,,
St James,Doherty,West Bloomfield,48322,,,,
St James Ct,Doherty,West Bloomfield,48322,,,,
Stoker Ct,Doherty,West Bloomfield,48322,,,,
Stonebridge Blvd,Doherty,West Bloomfield,48322,,,,
Stonebridge Ct,Doherty,West Bloomfield,48322,,,,
Stonebridge E,Doherty,West Bloomfield,48322,,,,
Stonebridge W,Doherty,West Bloomfield,48322,,,,
Stonecrest,Doherty,West Bloomfield,48322,,,,
Stonehedge Ct,Doherty,West Bloomfield,48322,,,,
Stone View,Doherty,West Bloomfield,48322,,,,
Stonington Ct,Doherty,West Bloomfield,48322,,,,
Stout,Roosevelt,Keego Harbor,48320,,,,
Strader,Gretchko,West Bloomfield,48324,,,,
Strandwyck,Doherty,West Bloomfield,48322,,,,
Stratford,Doherty,West Bloomfield,48322,,,,
Strong Ct East,Doherty,West Bloomfield,48323,,,,
Strong Ct West,Doherty,West Bloomfield,48323,,,,
Sugar Maple Way,Gretchko,West Bloomfield,48324,,,,
Summer Ct,Doherty,West Bloomfield,48322,,,,
Summers Rd,Roosevelt,Keego Harbor,48320,3133-3155 Summers Rd is part of Harbor Village sub,,,
Summers Ridge Dr,Roosevelt,Orchard Lake,48324,,,,
Sunset,Gretchko,Orchard Lake,48324,,,,
Sunshine,Gretchko,Orchard Lake,48324,,,,
Swan Lake,Doherty,West Bloomfield,48322,,,,
Swan Lake Ct,Doherty,West Bloomfield,48322,,,,
Sycamore,Gretchko,West Bloomfield,48324,,,,
Sylvan Glen,Roosevelt,Keego Harbor,48320,,,,
Tabor,Doherty,West Bloomfield,48322,,,,
Tamerlane,Doherty,West Bloomfield,48322,,,,
Teddington,Doherty,West Bloomfield,48323,,,,
Tequesta,Doherty,West Bloomfield,48323,,5306,5629,
Terrybrook,Doherty,West Bloomfield,48322,,,,
Thorntree,Doherty,West Bloomfield,48322,,,,
Thousand Oaks Dr,Gretchko,West Bloomfield,48324,,,,
Three Lakes Ln,Gretchko,Orchard Lake,48324,,,,
Timber Crest Ct,Gretchko,West Bloomfield,48324,,,,
Timberridge Dr,Gretchko,West Bloomfield,48324,,,,
Timberridge Ct,Gretchko,West Bloomfield,48324,,,,
Timberwood N,Doherty,West Bloomfield,48322,,,,
Timberwood S,Doherty,West Bloomfield,48322,,,,
Trail Ridge Ct,Doherty,West Bloomfield,48322,,,,
Trailview,Doherty,West Bloomfield,48322,,,,
Trailview Ct,Doherty,West Bloomfield,48322,,,,
Trailway Ct,Doherty,West Bloomfield,48322,,,,
Trailwood Ln,Doherty,West Bloomfield,48322,,,,
Treeline Dr,Doherty,West Bloomfield,48322,,,,
Trotter Ln,Doherty,West Bloomfield,48322,,,,
Twig,Doherty,West Bloomfield,48323,,,,
Twin Fawn Ln,Gretchko,Orchard Lake,48324,,,,
Twin Oaks Ct,Gretchko,West Bloomfield,48324,,,,
Tyrconnel,Doherty,West Bloomfield,48323,,3842,3886,
Upper Straits,Gretchko,West Bloomfield,48324,,,,
Valewood Rd,Doherty,West Bloomfield,48323,,,,
Valley Dr,Gretchko,Orchard Lake,48324,,,,
Valleyview Ct,Doherty,West Bloomfield,48323,,,,4635;4645;4655;4665;4675;4685;4694;4700
Varjo,Roosevelt,Keego Harbor,48320,,,,
Vassar Dr,Doherty,West Bloomfield,48322,,,,
Village Commons Dr,Doherty,West Bloomfield,48322,,,,
Village Commons Ct,Doherty,West Bloomfield,48322,,,,
Village Ct,Doherty,Orchard Lake,48323,,,,
Village Park Dr,Doherty,West Bloomfield,48322,,,,
Village Place Dr,Doherty,West Bloomfield,48322,,,,
Village Place Ct,Doherty,West Bloomfield,48322,,,,
"Village Square Dr,Ct,Cir ",Doherty,West Bloomfield,48322,,,,
Vineyard Point,Doherty,West Bloomfield,48322,,,,
Vinona,Gretchko,West Bloomfield,48324,No houses,,,
Virgie,Gretchko,West Bloomfield,48324,,,,
Virginia Ct,Roosevelt,Keego Harbor,48320,,,,
Wall,Roosevelt,Keego Harbor,48320,,,,
Walnut,Gretchko,Orchard Lake,48324,,,,
Walnut,Gretchko,West Bloomfield,48324,,,,
Walnut Creek,Doherty,West Bloomfield,48322,,,,
Walnut Creek Cir,Doherty,West Bloomfield,48322,,,,
Walnut Knoll Ct,Doherty,West Bloomfield,48323,,,,
Walnut Lake Rd,Doherty,West Bloomfield,48322,,,,3025;3049;3075;4785;4100;4300;5070
Walnut Lake Rd,Doherty,West Bloomfield,48322,,3111,3925,
Walnut Lake Rd,Doherty,West Bloomfield,48322,,4801,4959,
Walnut Lake Rd,Doherty,West Bloomfield,48322,,5085,5725,
Walnut Lake Rd,Doherty,West Bloomfield,48322,,4095,4725,
Walnut Lake Rd,Doherty,West Bloomfield,48323,,,,3025;3049;3075;4785;4100;4300;5070
Walnut Lake Rd,Doherty,West Bloomfield,48323,,3111,3925,
Walnut Lake Rd,Doherty,West Bloomfield,48323,,4801,4959,
Walnut Lake Rd,Doherty,West Bloomfield,48323,,5085,5725,
Walnut Lake Rd,Doherty,West Bloomfield,48323,,4095,4725,
Walnut Ridge Ct,Doherty,West Bloomfield,48322,,,,
Walnut Woods,Doherty,West Bloomfield,48323,,,,
Wardell Ct,Gretchko,West Bloomfield,48324,,,,
Ward's Point,Roosevelt,Orchard Lake,48324,,,,
Warrenshire,Doherty,West Bloomfield,48322,,,,
Warwick,Roosevelt,Sylvan Lake,48320,,,,
Watercroft Ct,Doherty,West Bloomfield,48322,,,,
Watergate,Doherty,West Bloomfield,48323,,,,
Wayward Dr,Roosevelt,Keego Harbor,48320,,1502,1534,
Weathervane,Gretchko,West Bloomfield,48324,,,,
Wellesley,Doherty,West Bloomfield,48322,,,,
Wellesley Ct,Doherty,West Bloomfield,48322,,,,
Wellington Ct,Gretchko,West Bloomfield,48324,,,,
West Bloomfield Lake Rd,Doherty,West Bloomfield,48323,,,,
Westbrooke Dr,Doherty,West Bloomfield,48322,,,,
Westbrooke Ct,Doherty,West Bloomfield,48322,,,,
Westcombe,Gretchko,West Bloomfield,48324,,,,
West Oaks Dr,Gretchko,West Bloomfield,48324,,,,
Westover,Doherty,West Bloomfield,48323,,,,4457;4463;4469
West Shore,Gretchko,Orchard Lake,48324,,,,
Whispering Woods Dr,Doherty,West Bloomfield,48322,,,,
White Birch,Doherty,West Bloomfield,48323,,,,
Wild Ridge Ln,Doherty,West Bloomfield,48322,,,,
Wildwood Ln,Gretchko,West Bloomfield,48324,,,,
Wildwood Ct,Gretchko,West Bloomfield,48324,,,,
Will-O-Way,Doherty,West Bloomfield,48323,,,,
Willow Beach,Roosevelt,Keego Harbor,48320,,,,
Willow Ct,Gretchko,West Bloomfield,48324,,,,
Willow Ln,Gretchko,Orchard Lake,48324,,,,
Willow Rd,Gretchko,West Bloomfield,48324,,5840,6683,
Willow Rd,Gretchko,West Bloomfield,48324,,,,6914;6932;6950;6968
Willow Valley,Doherty,West Bloomfield,48322,,,,
Winchester,Doherty,West Bloomfield,48322,,,,
Wincliff Dr,Doherty,West Bloomfield,48322,,,,
Windham Hill Ct,Doherty,West Bloomfield,48323,,,,
Winding Brook Ct,Doherty,West Bloomfield,48322,,,,
Windmill Ln,Gretchko,West Bloomfield,48324,,,,
Windside,Gretchko,West Bloomfield,48324,,,,
Winton Ct,Gretchko,West Bloomfield,48324,,,,
Woodcliff Hill Rd W,Doherty,West Bloomfield,48323,,,,
Woodcliff Hill Rd,Doherty,West Bloomfield,48323,,,,
Woodlands Ln,Doherty,Orchard Lake,48323,,,,
Woodlawn,Gretchko,Orchard Lake,48324,,,,
Woodrow Wilson,Roosevelt,West Bloomfield,48324,Any apart. units with the addresses of 2332 or 2336 are Pontiac schools.,2400,2420,
Woodrow Wilson,Roosevelt,West Bloomfield,48324,Any apart. units with the addresses of 2332 or 2336 are Pontiac schools.,2500,2560,
Woodtrail Dr,Doherty,West Bloomfield,48322,,,,
Woodview,Gretchko,West Bloomfield,48324,,,,
Woodview Ct,Gretchko,West Bloomfield,48324,,,,
Wright Way E,Doherty,West Bloomfield,48322,,,,
Wright Way W,Doherty,West Bloomfield,48322,,,,
Wright Way S,Doherty,West Bloomfield,48322,,,,
Wynford,Doherty,West Bloomfield,48322,,,,
Yorktown,Doherty,West Bloomfield,48323,,,,
Yorkwood,Doherty,West Bloomfield,48322,,,,
